SL-3 R/B                
1 13403U 82079B   25344.31657704  .00008305  00000+0  34297-3 0  9991
2 13403  81.1470 298.5170 0027040 106.7476 253.6727 15.23540953364080
SL-14 R/B               
1 13553U 82092B   25344.20100462  .00000774  00000+0  84397-4 0  9993
2 13553  82.5686 225.0860 0019046 236.0859 243.8159 14.86551827315637
SL-3 R/B                
1 13819U 83010B   25344.30841537  .00019955  00000+0  44394-3 0  9998
2 13819  81.1039 111.5864 0017320 359.5993   0.5232 15.43352104344144
SL-3 R/B                
1 14208U 83075B   25344.24673963  .00014533  00000+0  41262-3 0  9999
2 14208  97.6109 340.6464 0022471 184.2963 175.8091 15.36053368316411
COSMOS 1536             
1 14699U 84013A   25344.30883934  .00008010  00000+0  34383-3 0  9993
2 14699  82.5452 196.5751 0013392 235.2447 124.7529 15.22475166259012
SL-14 R/B               
1 14820U 84027B   25344.06385986  .00000826  00000+0  91890-4 0  9995
2 14820  82.5411 329.0658 0016373 270.5530  89.3810 14.85869749234327
SL-8 R/B                
1 15483U 85006B   25344.24055272  .00000423  00000+0  14913-3 0  9994
2 15483  74.0467  65.7329 0018566 358.6279  32.3523 14.37719018141172
SL-12 R/B(2)            
1 15772U 85042D   25344.29425163  .00000250  00000+0  13379-3 0  9993
2 15772  71.1086 276.5861 0037661 265.0986 209.6639 14.21950883101683
SL-14 R/B               
1 15945U 85069B   25343.73931355  .00001056  00000+0  11680-3 0  9995
2 15945  82.5265 109.5235 0019993 127.8074 232.4956 14.86319256159471
SL-16 R/B               
1 16182U 85097B   25344.24278694  .00000202  00000+0  12512-3 0  9994
2 16182  71.0031 328.8599 0006517  14.9812  73.4877 14.16582544 74568
SL-14 R/B               
1 16496U 86006B   25344.07497361  .00000996  00000+0  10364-3 0  9991
2 16496  82.5264 344.0588 0075945 208.7316 150.9709 14.86666234135897
COSMOS 1743             
1 16719U 86034A   25344.13995176  .00036651  00000+0  60830-3 0  9994
2 16719  82.5348 167.2918 0004638 264.9942  95.0780 15.51932461166332
