CCSDS_OMM_VERS = 2.0
CREATION_DATE  = 
ORIGINATOR     = 

OBJECT_NAME    = SL-3 R/B
OBJECT_ID      = 1982-079B
CENTER_NAME    = EARTH
REF_FRAME      = TEME
TIME_SYSTEM    = UTC
MEAN_ELEMENT_THEORY = SGP/SGP4

EPOCH          = 2025-12-10T07:35:52.256256
MEAN_MOTION    = 15.23540953
ECCENTRICITY   = .00270407
INCLINATION    = 81.1470
RA_OF_ASC_NODE = 298.5170
ARG_OF_PERICENTER = 106.7476
MEAN_ANOMALY   = 253.6727

EPHEMERIS_TYPE = 0
CLASSIFICATION_TYPE = U
NORAD_CAT_ID   = 13403
ELEMENT_SET_NO = 999
REV_AT_EPOCH   = 36408
BSTAR          = .34297008E-3
MEAN_MOTION_DOT = .8305E-4
MEAN_MOTION_DDOT = 0

CCSDS_OMM_VERS = 2.0
CREATION_DATE  = 
ORIGINATOR     = 

OBJECT_NAME    = SL-14 R/B
OBJECT_ID      = 1982-092B
CENTER_NAME    = EARTH
REF_FRAME      = TEME
TIME_SYSTEM    = UTC
MEAN_ELEMENT_THEORY = SGP/SGP4

EPOCH          = 2025-12-10T04:49:26.799168
MEAN_MOTION    = 14.86551827
ECCENTRICITY   = .00190468
INCLINATION    = 82.5686
RA_OF_ASC_NODE = 225.0860
ARG_OF_PERICENTER = 236.0859
MEAN_ANOMALY   = 243.8159

EPHEMERIS_TYPE = 0
CLASSIFICATION_TYPE = U
NORAD_CAT_ID   = 13553
ELEMENT_SET_NO = 999
REV_AT_EPOCH   = 31563
BSTAR          = .84396792E-4
MEAN_MOTION_DOT = .774E-5
MEAN_MOTION_DDOT = 0

CCSDS_OMM_VERS = 2.0
CREATION_DATE  = 
ORIGINATOR     = 

OBJECT_NAME    = SL-3 R/B
OBJECT_ID      = 1983-010B
CENTER_NAME    = EARTH
REF_FRAME      = TEME
TIME_SYSTEM    = UTC
MEAN_ELEMENT_THEORY = SGP/SGP4

EPOCH          = 2025-12-10T07:24:07.087968
MEAN_MOTION    = 15.43352104
ECCENTRICITY   = .00173202
INCLINATION    = 81.1039
RA_OF_ASC_NODE = 111.5864
ARG_OF_PERICENTER = 359.5993
MEAN_ANOMALY   = 0.5232

EPHEMERIS_TYPE = 0
CLASSIFICATION_TYPE = U
NORAD_CAT_ID   = 13819
ELEMENT_SET_NO = 999
REV_AT_EPOCH   = 34414
BSTAR          = .44394245E-3
MEAN_MOTION_DOT = .19955E-3
MEAN_MOTION_DDOT = 0

CCSDS_OMM_VERS = 2.0
CREATION_DATE  = 
ORIGINATOR     = 

OBJECT_NAME    = SL-3 R/B
OBJECT_ID      = 1983-075B
CENTER_NAME    = EARTH
REF_FRAME      = TEME
TIME_SYSTEM    = UTC
MEAN_ELEMENT_THEORY = SGP/SGP4

EPOCH          = 2025-12-10T05:55:18.304032
MEAN_MOTION    = 15.36053368
ECCENTRICITY   = .00224717
INCLINATION    = 97.6109
RA_OF_ASC_NODE = 340.6464
ARG_OF_PERICENTER = 184.2963
MEAN_ANOMALY   = 175.8091

EPHEMERIS_TYPE = 0
CLASSIFICATION_TYPE = U
NORAD_CAT_ID   = 14208
ELEMENT_SET_NO = 999
REV_AT_EPOCH   = 31641
BSTAR          = .41261927E-3
MEAN_MOTION_DOT = .14533E-3
MEAN_MOTION_DDOT = 0

CCSDS_OMM_VERS = 2.0
CREATION_DATE  = 
ORIGINATOR     = 

OBJECT_NAME    = COSMOS 1536
OBJECT_ID      = 1984-013A
CENTER_NAME    = EARTH
REF_FRAME      = TEME
TIME_SYSTEM    = UTC
MEAN_ELEMENT_THEORY = SGP/SGP4

EPOCH          = 2025-12-10T07:24:43.718976
MEAN_MOTION    = 15.22475166
ECCENTRICITY   = .00133924
INCLINATION    = 82.5452
RA_OF_ASC_NODE = 196.5751
ARG_OF_PERICENTER = 235.2447
MEAN_ANOMALY   = 124.7529

EPHEMERIS_TYPE = 0
CLASSIFICATION_TYPE = U
NORAD_CAT_ID   = 14699
ELEMENT_SET_NO = 999
REV_AT_EPOCH   = 25901
BSTAR          = .34383151E-3
MEAN_MOTION_DOT = .801E-4
MEAN_MOTION_DDOT = 0

CCSDS_OMM_VERS = 2.0
CREATION_DATE  = 
ORIGINATOR     = 

OBJECT_NAME    = SL-14 R/B
OBJECT_ID      = 1984-027B
CENTER_NAME    = EARTH
REF_FRAME      = TEME
TIME_SYSTEM    = UTC
MEAN_ELEMENT_THEORY = SGP/SGP4

EPOCH          = 2025-12-10T01:31:57.491904
MEAN_MOTION    = 14.85869749
ECCENTRICITY   = .00163737
INCLINATION    = 82.5411
RA_OF_ASC_NODE = 329.0658
ARG_OF_PERICENTER = 270.5530
MEAN_ANOMALY   = 89.3810

EPHEMERIS_TYPE = 0
CLASSIFICATION_TYPE = U
NORAD_CAT_ID   = 14820
ELEMENT_SET_NO = 999
REV_AT_EPOCH   = 23432
BSTAR          = .91890346E-4
MEAN_MOTION_DOT = .826E-5
MEAN_MOTION_DDOT = 0

CCSDS_OMM_VERS = 2.0
CREATION_DATE  = 
ORIGINATOR     = 

OBJECT_NAME    = SL-8 R/B
OBJECT_ID      = 1985-006B
CENTER_NAME    = EARTH
REF_FRAME      = TEME
TIME_SYSTEM    = UTC
MEAN_ELEMENT_THEORY = SGP/SGP4

EPOCH          = 2025-12-10T05:46:23.755008
MEAN_MOTION    = 14.37719018
ECCENTRICITY   = .00185662
INCLINATION    = 74.0467
RA_OF_ASC_NODE = 65.7329
ARG_OF_PERICENTER = 358.6279
MEAN_ANOMALY   = 32.3523

EPHEMERIS_TYPE = 0
CLASSIFICATION_TYPE = U
NORAD_CAT_ID   = 15483
ELEMENT_SET_NO = 999
REV_AT_EPOCH   = 14117
BSTAR          = .14912949E-3
MEAN_MOTION_DOT = .423E-5
MEAN_MOTION_DDOT = 0

CCSDS_OMM_VERS = 2.0
CREATION_DATE  = 
ORIGINATOR     = 

OBJECT_NAME    = SL-12 R/B(2)
OBJECT_ID      = 1985-042D
CENTER_NAME    = EARTH
REF_FRAME      = TEME
TIME_SYSTEM    = UTC
MEAN_ELEMENT_THEORY = SGP/SGP4

EPOCH          = 2025-12-10T07:03:43.340832
MEAN_MOTION    = 14.21950883
ECCENTRICITY   = .00376617
INCLINATION    = 71.1086
RA_OF_ASC_NODE = 276.5861
ARG_OF_PERICENTER = 265.0986
MEAN_ANOMALY   = 209.6639

EPHEMERIS_TYPE = 0
CLASSIFICATION_TYPE = U
NORAD_CAT_ID   = 15772
ELEMENT_SET_NO = 999
REV_AT_EPOCH   = 10168
BSTAR          = .1337926E-3
MEAN_MOTION_DOT = .25E-5
MEAN_MOTION_DDOT = 0

CCSDS_OMM_VERS = 2.0
CREATION_DATE  = 
ORIGINATOR     = 

OBJECT_NAME    = SL-14 R/B
OBJECT_ID      = 1985-069B
CENTER_NAME    = EARTH
REF_FRAME      = TEME
TIME_SYSTEM    = UTC
MEAN_ELEMENT_THEORY = SGP/SGP4

EPOCH          = 2025-12-09T17:44:36.690720
MEAN_MOTION    = 14.86319256
ECCENTRICITY   = .00199933
INCLINATION    = 82.5265
RA_OF_ASC_NODE = 109.5235
ARG_OF_PERICENTER = 127.8074
MEAN_ANOMALY   = 232.4956

EPHEMERIS_TYPE = 0
CLASSIFICATION_TYPE = U
NORAD_CAT_ID   = 15945
ELEMENT_SET_NO = 999
REV_AT_EPOCH   = 15947
BSTAR          = .11680126E-3
MEAN_MOTION_DOT = .1056E-4
MEAN_MOTION_DDOT = 0

CCSDS_OMM_VERS = 2.0
CREATION_DATE  = 
ORIGINATOR     = 

OBJECT_NAME    = SL-16 R/B
OBJECT_ID      = 1985-097B
CENTER_NAME    = EARTH
REF_FRAME      = TEME
TIME_SYSTEM    = UTC
MEAN_ELEMENT_THEORY = SGP/SGP4

EPOCH          = 2025-12-10T05:49:36.791616
MEAN_MOTION    = 14.16582544
ECCENTRICITY   = .00065175
INCLINATION    = 71.0031
RA_OF_ASC_NODE = 328.8599
ARG_OF_PERICENTER = 14.9812
MEAN_ANOMALY   = 73.4877

EPHEMERIS_TYPE = 0
CLASSIFICATION_TYPE = U
NORAD_CAT_ID   = 16182
ELEMENT_SET_NO = 999
REV_AT_EPOCH   = 7456
BSTAR          = .12512194E-3
MEAN_MOTION_DOT = .202E-5
MEAN_MOTION_DDOT = 0

CCSDS_OMM_VERS = 2.0
CREATION_DATE  = 
ORIGINATOR     = 

OBJECT_NAME    = SL-14 R/B
OBJECT_ID      = 1986-006B
CENTER_NAME    = EARTH
REF_FRAME      = TEME
TIME_SYSTEM    = UTC
MEAN_ELEMENT_THEORY = SGP/SGP4

EPOCH          = 2025-12-10T01:47:57.719904
MEAN_MOTION    = 14.86666234
ECCENTRICITY   = .00759453
INCLINATION    = 82.5264
RA_OF_ASC_NODE = 344.0588
ARG_OF_PERICENTER = 208.7316
MEAN_ANOMALY   = 150.9709

EPHEMERIS_TYPE = 0
CLASSIFICATION_TYPE = U
NORAD_CAT_ID   = 16496
ELEMENT_SET_NO = 999
REV_AT_EPOCH   = 13589
BSTAR          = .10364301E-3
MEAN_MOTION_DOT = .996E-5
MEAN_MOTION_DDOT = 0

CCSDS_OMM_VERS = 2.0
CREATION_DATE  = 
ORIGINATOR     = 

OBJECT_NAME    = COSMOS 1743
OBJECT_ID      = 1986-034A
CENTER_NAME    = EARTH
REF_FRAME      = TEME
TIME_SYSTEM    = UTC
MEAN_ELEMENT_THEORY = SGP/SGP4

EPOCH          = 2025-12-10T03:21:31.832064
MEAN_MOTION    = 15.51932461
ECCENTRICITY   = .00046388
INCLINATION    = 82.5348
RA_OF_ASC_NODE = 167.2918
ARG_OF_PERICENTER = 264.9942
MEAN_ANOMALY   = 95.0780

EPHEMERIS_TYPE = 0
CLASSIFICATION_TYPE = U
NORAD_CAT_ID   = 16719
ELEMENT_SET_NO = 999
REV_AT_EPOCH   = 16633
BSTAR          = .60830108E-3
MEAN_MOTION_DOT = .36651E-3
MEAN_MOTION_DDOT = 0

